NORAD_CAT_ID,OBJECT_NAME,OBJECT_TYPE,EPOCH,MEAN_MOTION,ECCENTRICITY,INCLINATION,RA_OF_ASC_NODE,ARG_OF_PERICENTER,MEAN_ANOMALY,BSTAR,MEAN_MOTION_DOT,MEAN_MOTION_DDOT,TLE_LINE0,TLE_LINE1,TLE_LINE2,SEMIMAJOR_AXIS,PERIOD,APOGEE,PERIGEE,DECAYED
56485.0,STARLINK-6210,PAYLOAD,2023-07-18 00:26:02,15.69911855,0.0003177,69.9988,53.2815,266.9931,93.0901,-1.1588e-05,-1.605e-05,0.0,0 STARLINK-6210,1 56485U 23064AP  23199.01808420 -.00001605  00000-0 -11588-4 0  9991,2 56485  69.9988  53.2815 0003177 266.9931  93.0901 15.69911855 11090,6737.286,91.725,361.292,357.011,0.0
56485.0,STARLINK-6210,PAYLOAD,2023-07-18 15:43:32,15.69931021,0.0003892,69.9976,51.4879,282.1503,77.9257,1.113e-05,1.126e-05,0.0,0 STARLINK-6210,1 56485U 23064AP  23199.65524059  .00001126  00000-0  11130-4 0  9993,2 56485  69.9976  51.4879 0003892 282.1503  77.9257 15.69931021 11199,6737.231,91.724,361.718,356.474,0.0
56485.0,STARLINK-6210,PAYLOAD,2023-07-19 00:54:04,15.69914468,0.0003835,69.9999,50.4157,283.6186,76.4583,-1.96e-05,-2.568e-05,0.0,0 STARLINK-6210,1 56485U 23064AP  23200.03754711 -.00002568  00000-0 -19600-4 0  9991,2 56485  69.9999  50.4157 0003835 283.6186  76.4583 15.69914468 11251,6737.279,91.725,361.727,356.56,0.0
56485.0,STARLINK-6210,PAYLOAD,2023-07-19 17:43:20,15.69924688,0.0003026,70.0,48.4416,275.9662,84.1189,1.2689e-05,1.313e-05,0.0,0 STARLINK-6210,1 56485U 23064AP  23200.73843162  .00001313  00000-0  12689-4 0  9992,2 56485  70.0000  48.4416 0003026 275.9662  84.1189 15.69924688 11362,6737.249,91.724,361.153,357.076,0.0
56485.0,STARLINK-6210,PAYLOAD,2023-07-21 00:18:22,15.69928281,0.0003525,70.0003,44.8589,287.0309,73.0501,3.7683e-05,4.321e-05,0.0,0 STARLINK-6210,1 56485U 23064AP  23202.01276357  .00004321  00000-0  37683-4 0  9994,2 56485  70.0003  44.8589 0003525 287.0309  73.0501 15.69928281 11562,6737.239,91.724,361.479,356.729,0.0
56485.0,STARLINK-6210,PAYLOAD,2023-07-24 12:24:46,15.69882713,0.0006995,70.001,35.0098,278.0517,81.9885,-8.6154e-05,-0.00010555,0.0,0 STARLINK-6210,1 56485U 23064AP  23205.51720331 -.00010555  00000-0 -86154-4 0  9993,2 56485  70.0010  35.0098 0006995 278.0517  81.9885 15.69882713 11766,6737.37,91.727,363.947,354.522,0.0
56485.0,STARLINK-6210,PAYLOAD,2023-07-25 12:52:46,15.69924526,0.0003889,70.0,32.1402,260.6525,99.4231,1.1293e-05,1.145e-05,0.0,0 STARLINK-6210,1 56485U 23064AP  23206.53665394  .00001145  00000-0  11293-4 0  9998,2 56485  70.0000  32.1402 0003889 260.6525  99.4231 15.69924526 12272,6737.25,91.724,361.735,356.495,0.0
56485.0,STARLINK-6210,PAYLOAD,2023-07-25 22:03:17,15.6993117,0.0003805,70.0008,31.067,267.8177,92.2583,2.5674e-05,2.876e-05,0.0,0 STARLINK-6210,1 56485U 23064AP  23206.91895172  .00002876  00000-0  25674-4 0  9999,2 56485  70.0008  31.0670 0003805 267.8177  92.2583 15.69931170 11986,6737.231,91.724,361.659,356.532,0.0
56485.0,STARLINK-6210,PAYLOAD,2023-07-26 16:24:18,15.69931353,0.000422,70.0003,28.9161,259.022,101.0501,2.3495e-05,2.614e-05,0.0,0 STARLINK-6210,1 56485U 23064AP  23207.68354834  .00002614  00000-0  23495-4 0  9998,2 56485  70.0003  28.9161 0004220 259.0220 101.0501 15.69931353 12450,6737.23,91.724,361.939,356.252,0.0
56485.0,STARLINK-6210,PAYLOAD,2023-07-26 22:31:18,15.69932257,0.0004289,70.0003,28.1995,258.4408,101.6306,2.238e-05,2.48e-05,0.0,0 STARLINK-6210,1 56485U 23064AP  23207.93841373  .00002480  00000-0  22380-4 0  9998,2 56485  70.0003  28.1995 0004289 258.4408 101.6306 15.69932257 12142,6737.228,91.724,361.982,356.203,0.0
56485.0,STARLINK-6210,PAYLOAD,2023-07-27 18:24:06,15.6991684,0.0004078,69.9998,25.8708,271.5392,88.5336,-9.4927e-06,-1.354e-05,0.0,0 STARLINK-6210,1 56485U 23064AP  23208.76674258 -.00001354  00000-0 -94927-5 0  9994,2 56485  69.9998  25.8708 0004078 271.5392  88.5336 15.69916840 12621,6737.272,91.725,361.884,356.389,0.0
56485.0,STARLINK-6210,PAYLOAD,2023-07-27 21:27:36,15.69924122,0.0003797,69.9985,25.5113,273.6183,86.4579,1.1685e-06,-7.3e-07,0.0,0 STARLINK-6210,1 56485U 23064AP  23208.89417269 -.00000073  00000-0  11685-5 0  9991,2 56485  69.9985  25.5113 0003797 273.6183  86.4579 15.69924122 12293,6737.251,91.724,361.674,356.558,0.0
56485.0,STARLINK-6210,PAYLOAD,2023-07-28 05:06:22,15.69917385,0.0003679,69.9978,24.6152,270.5067,89.5707,-1.6177e-07,-2.32e-06,0.0,0 STARLINK-6210,1 56485U 23064AP  23209.21275762 -.00000232  00000-0 -16177-6 0  9998,2 56485  69.9978  24.6152 0003679 270.5067  89.5707 15.69917385 12340,6737.27,91.725,361.614,356.657,0.0
56485.0,STARLINK-6210,PAYLOAD,2023-07-28 15:48:37,15.69928402,0.0003901,70.0,23.3614,271.5183,88.5565,1.5747e-05,1.681e-05,0.0,0 STARLINK-6210,1 56485U 23064AP  23209.65877040  .00001681  00000-0  15747-4 0  9990,2 56485  70.0000  23.3614 0003901 271.5183  88.5565 15.69928402 12765,6737.239,91.724,361.732,356.476,0.0
56485.0,STARLINK-6210,PAYLOAD,2023-07-29 19:20:10,15.6992969,0.0003736,69.9979,20.1383,273.5617,86.5151,2.4098e-06,7.7e-07,0.0,0 STARLINK-6210,1 56485U 23064AP  23210.80567367  .00000077  00000-0  24098-5 0  9995,2 56485  69.9979  20.1383 0003736 273.5617  86.5151 15.69929690 12944,6737.235,91.724,361.617,356.583,0.0
56485.0,STARLINK-6210,PAYLOAD,2023-07-30 19:48:11,15.69939467,0.0004164,69.9985,17.2716,265.0817,94.9904,3.1061e-05,3.526e-05,0.0,0 STARLINK-6210,1 56485U 23064AP  23211.82513262  .00003526  00000-0  31061-4 0  9992,2 56485  69.9985  17.2716 0004164 265.0817  94.9904 15.69939467 13103,6737.207,91.723,361.878,356.267,0.0
56485.0,STARLINK-6210,PAYLOAD,2023-07-31 11:05:43,15.69923083,0.0003621,69.9984,15.4798,272.131,87.9471,2.2919e-07,-1.85e-06,0.0,0 STARLINK-6210,1 56485U 23064AP  23212.46231107 -.00000185  00000-0  22919-6 0  9991,2 56485  69.9984  15.4798 0003621 272.1310  87.9471 15.69923083 13205,6737.254,91.724,361.559,356.679,0.0
56485.0,STARLINK-6210,PAYLOAD,2023-07-31 18:44:28,15.69935769,0.0003646,69.9974,14.5837,274.0718,86.0061,1.7711e-05,1.918e-05,0.0,0 STARLINK-6210,1 56485U 23064AP  23212.78088715  .00001918  00000-0  17711-4 0  9997,2 56485  69.9974  14.5837 0003646 274.0718  86.0061 15.69935769 13252,6737.218,91.723,361.539,356.626,0.0
56485.0,STARLINK-6210,PAYLOAD,2023-08-01 14:37:16,15.69924032,0.0003686,69.9981,12.2546,269.256,90.8213,2.6653e-06,1.08e-06,0.0,0 STARLINK-6210,1 56485U 23064AP  23213.60921512  .00000108  00000-0  26653-5 0  9996,2 56485  69.9981  12.2546 0003686 269.2560  90.8213 15.69924032 13384,6737.251,91.724,361.6,356.633,0.0
56485.0,STARLINK-6210,PAYLOAD,2023-08-01 20:44:16,15.69930254,0.0003842,69.9995,11.5372,267.4527,92.6229,1.5557e-05,1.659e-05,0.0,0 STARLINK-6210,1 56485U 23064AP  23213.86407624  .00001659  00000-0  15557-4 0  9999,2 56485  69.9995  11.5372 0003842 267.4527  92.6229 15.69930254 13420,6737.234,91.724,361.687,356.51,0.0
56485.0,STARLINK-6210,PAYLOAD,2023-08-02 10:30:02,15.69925198,0.0003816,69.9995,9.9248,267.4943,92.5816,9.4161e-06,9.19e-06,0.0,0 STARLINK-6210,1 56485U 23064AP  23214.43752857  .00000919  00000-0  94161-5 0  9991,2 56485  69.9995   9.9248 0003816 267.4943  92.5816 15.69925198 13518,6737.248,91.724,361.684,356.542,0.0
56485.0,STARLINK-6210,PAYLOAD,2023-08-02 19:40:32,15.69934793,0.0003697,69.9976,8.8505,266.9737,93.1035,1.8422e-05,2.004e-05,0.0,0 STARLINK-6210,1 56485U 23064AP  23214.81982185  .00002004  00000-0  18422-4 0  9994,2 56485  69.9976   8.8505 0003697 266.9737  93.1035 15.69934793 13570,6737.221,91.724,361.576,356.595,0.0
56485.0,STARLINK-6210,PAYLOAD,2023-08-03 10:58:05,15.69912489,0.0003376,69.9984,7.0573,264.8415,95.2396,1.1024e-05,1.112e-05,0.0,0 STARLINK-6210,1 56485U 23064AP  23215.45700296  .00001112  00000-0  11024-4 0  9996,2 56485  69.9984   7.0573 0003376 264.8415  95.2396 15.69912489 13671,6737.284,91.725,361.424,356.875,0.0
56485.0,STARLINK-6210,PAYLOAD,2023-08-03 20:08:35,15.69929331,0.0003874,69.9976,5.9852,265.3434,94.7319,5.5426e-06,4.54e-06,0.0,0 STARLINK-6210,1 56485U 23064AP  23215.83929825  .00000454  00000-0  55426-5 0  9992,2 56485  69.9976   5.9852 0003874 265.3434  94.7319 15.69929331 13739,6737.236,91.724,361.711,356.491,0.0
56485.0,STARLINK-6210,PAYLOAD,2023-08-04 09:54:22,15.69919147,0.000343,69.9977,4.3721,265.562,94.5184,-3.0009e-06,-5.74e-06,0.0,0 STARLINK-6210,1 56485U 23064AP  23216.41275528 -.00000574  00000-0 -30009-5 0  9996,2 56485  69.9977   4.3721 0003430 265.5620  94.5184 15.69919147 13827,6737.265,91.724,361.441,356.819,0.0
56485.0,STARLINK-6210,PAYLOAD,2023-08-04 19:04:51,15.69933721,0.0003476,69.9978,3.2972,262.8378,97.2422,1.3469e-05,1.408e-05,0.0,0 STARLINK-6210,1 56485U 23064AP  23216.79504345  .00001408  00000-0  13469-4 0  9994,2 56485  69.9978   3.2972 0003476 262.8378  97.2422 15.69933721 13889,6737.224,91.724,361.43,356.747,0.0
56485.0,STARLINK-6210,PAYLOAD,2023-08-05 10:22:23,15.69929382,0.0003318,69.9999,1.5064,261.9067,98.1753,3.2054e-05,3.644e-05,0.0,0 STARLINK-6210,1 56485U 23064AP  23217.43221385  .00003644  00000-0  32054-4 0  9991,2 56485  69.9999   1.5064 0003318 261.9067  98.1753 15.69929382 13981,6737.236,91.724,361.336,356.866,0.0
56485.0,STARLINK-6210,PAYLOAD,2023-08-06 10:50:28,15.69875476,0.0003074,70.0014,358.6399,261.981,98.1036,-6.115e-05,-7.543e-05,0.0,0 STARLINK-6210,1 56485U 23064AP  23218.45171846 -.00007543  00000-0 -61150-4 0  9993,2 56485  70.0014 358.6399 0003074 261.9810  98.1036 15.69875476 14141,6737.39,91.727,361.326,357.184,0.0
56485.0,STARLINK-6210,PAYLOAD,2023-08-06 16:57:27,15.69922376,0.0003089,70.0007,357.9225,252.5385,107.5473,3.4077e-05,3.886e-05,0.0,0 STARLINK-6210,1 56485U 23064AP  23218.70656514  .00003886  00000-0  34077-4 0  9993,2 56485  70.0007 357.9225 0003089 252.5385 107.5473 15.69922376 14188,6737.256,91.724,361.202,357.04,0.0
56485.0,STARLINK-6210,PAYLOAD,2023-08-06 20:00:57,15.69931911,0.000314,70.0012,357.5631,255.4937,104.5911,4.3957e-05,5.078e-05,0.0,0 STARLINK-6210,1 56485U 23064AP  23218.83399342  .00005078  00000-0  43957-4 0  9992,2 56485  70.0012 357.5631 0003140 255.4937 104.5911 15.69931911 14206,6737.229,91.724,361.209,356.978,0.0
